ONEWEB-0212             
1 48791U 21045AA  26064.08741655 -.00000112  00000+0 -33098-3 0  9996
2 48791  87.8954 279.9677 0001600  88.6647 271.4666 13.15547400230743
ONEWEB-0227             
1 48792U 21045AB  26064.08662717 -.00000035  00000+0 -12823-3 0  9995
2 48792  87.8950 279.9705 0001655  91.0944 269.0375 13.15547831230692
ONEWEB-0226             
1 48793U 21045AC  26064.08028586 -.00000082  00000+0 -25296-3 0  9996
2 48793  87.8946 279.9809 0001447 101.1266 259.0027 13.15547568230669
ONEWEB-0224             
1 48794U 21045AD  26064.11990270  .00000536  00000+0  13887-2 0  9993
2 48794  87.8941 280.0093 0002699  95.4102 264.7337 13.15547072230596
ONEWEB-0233             
1 48795U 21045AE  26064.12451889  .00000199  00000+0  49404-3 0  9993
2 48795  87.8938 280.0172 0001728  96.6965 263.4362 13.15547653230615
ONEWEB-0190             
1 48796U 21045AF  26064.11197962  .00000189  00000+0  46693-3 0  9998
2 48796  87.8942 279.9804 0001739 113.9679 246.1633 13.15548505230680
ONEWEB-0236             
1 48797U 21045AG  26064.12940890  .00000173  00000+0  42554-3 0  9991
2 48797  87.8938 279.9886 0001622  84.2759 275.8556 13.15547587230576
ONEWEB-0248             
1 48798U 21045AH  26064.14209719  .00000427  00000+0  10989-2 0  9990
2 48798  87.8953 279.9590 0002019  98.9092 261.2266 13.15547910230734
ONEWEB-0225             
1 48799U 21045AJ  26064.08820859 -.00000071  00000+0 -22183-3 0  9995
2 48799  87.8942 279.9858 0001759 111.3323 248.7995 13.15547476230733
ONEWEB-0215             
1 48800U 21045AK  26064.13417049  .00000127  00000+0  30373-3 0  9997
2 48800  87.8956 279.9490 0001894 111.8170 248.3162 13.15547824230614
ONEWEB-0216             
1 48801U 21045AL  26064.14367880  .00002085  00000+0  55023-2 0  9999
2 48801  87.8948 279.9669 0001411  97.2942 262.8349 13.15543436230627
ONEWEB-0239             
1 48802U 21045AM  26064.14842441 -.00000038  00000+0 -13632-3 0  9990
2 48802  87.8944 279.9804 0002161 108.2587 251.8778 13.15547436230668
ONEWEB-0249             
1 48967U 21060A   26063.78506873 -.00000016  00000+0 -76731-4 0  9990
2 48967  87.9000 249.5465 0001737  96.6234 263.5095 13.16593519225870
ONEWEB-0250             
1 48968U 21060B   26063.48255401  .00000012  00000+0 -17503-5 0  9994
2 48968  87.9000 247.7038 0002670  89.2213 270.9229 13.25827575226345
ONEWEB-0252             
1 48970U 21060D   26064.04392888  .00000031  00000+0  48113-4 0  9991
2 48970  87.8999 249.4877 0001382  99.7221 260.4066 13.16593226225950
ONEWEB-0253             
1 48971U 21060E   26063.95686044  .00000246  00000+0  60983-3 0  9997
2 48971  87.9006 249.5071 0001338  83.1636 276.9647 13.16591354225874
ONEWEB-0254             
1 48972U 21060F   26064.04234556  .00000095  00000+0  21605-3 0  9996
2 48972  87.9003 249.4883 0001922 106.9085 253.2257 13.16592630225887
