[{"OBJECT_NAME":"ONEWEB-0212","OBJECT_ID":"2021-045AA","EPOCH":"2026-03-05T02:05:52.789920","MEAN_MOTION":13.155474,"ECCENTRICITY":0.00016,"INCLINATION":87.8954,"RA_OF_ASC_NODE":279.9677,"ARG_OF_PERICENTER":88.6647,"MEAN_ANOMALY":271.4666,"EPHEMERIS_TYPE":0,"CLASSIFICATION_TYPE":"U","NORAD_CAT_ID":48791,"ELEMENT_SET_NO":999,"REV_AT_EPOCH":23074,"BSTAR":-0.00033098,"MEAN_MOTION_DOT":-1.12e-6,"MEAN_MOTION_DDOT":0},{"OBJECT_NAME":"ONEWEB-0227","OBJECT_ID":"2021-045AB","EPOCH":"2026-03-05T02:04:44.587488","MEAN_MOTION":13.15547831,"ECCENTRICITY":0.0001655,"INCLINATION":87.895,"RA_OF_ASC_NODE":279.9705,"ARG_OF_PERICENTER":91.0944,"MEAN_ANOMALY":269.0375,"EPHEMERIS_TYPE":0,"CLASSIFICATION_TYPE":"U","NORAD_CAT_ID":48792,"ELEMENT_SET_NO":999,"REV_AT_EPOCH":23069,"BSTAR":-0.00012823,"MEAN_MOTION_DOT":-3.5e-7,"MEAN_MOTION_DDOT":0},{"OBJECT_NAME":"ONEWEB-0226","OBJECT_ID":"2021-045AC","EPOCH":"2026-03-05T01:55:36.698304","MEAN_MOTION":13.15547568,"ECCENTRICITY":0.0001447,"INCLINATION":87.8946,"RA_OF_ASC_NODE":279.9809,"ARG_OF_PERICENTER":101.1266,"MEAN_ANOMALY":259.0027,"EPHEMERIS_TYPE":0,"CLASSIFICATION_TYPE":"U","NORAD_CAT_ID":48793,"ELEMENT_SET_NO":999,"REV_AT_EPOCH":23066,"BSTAR":-0.00025296,"MEAN_MOTION_DOT":-8.2e-7,"MEAN_MOTION_DDOT":0},{"OBJECT_NAME":"ONEWEB-0224","OBJECT_ID":"2021-045AD","EPOCH":"2026-03-05T02:52:39.593280","MEAN_MOTION":13.15547072,"ECCENTRICITY":0.0002699,"INCLINATION":87.8941,"RA_OF_ASC_NODE":280.0093,"ARG_OF_PERICENTER":95.4102,"MEAN_ANOMALY":264.7337,"EPHEMERIS_TYPE":0,"CLASSIFICATION_TYPE":"U","NORAD_CAT_ID":48794,"ELEMENT_SET_NO":999,"REV_AT_EPOCH":23059,"BSTAR":0.0013887,"MEAN_MOTION_DOT":5.36e-6,"MEAN_MOTION_DDOT":0},{"OBJECT_NAME":"ONEWEB-0233","OBJECT_ID":"2021-045AE","EPOCH":"2026-03-05T02:59:18.432096","MEAN_MOTION":13.15547653,"ECCENTRICITY":0.0001728,"INCLINATION":87.8938,"RA_OF_ASC_NODE":280.0172,"ARG_OF_PERICENTER":96.6965,"MEAN_ANOMALY":263.4362,"EPHEMERIS_TYPE":0,"CLASSIFICATION_TYPE":"U","NORAD_CAT_ID":48795,"ELEMENT_SET_NO":999,"REV_AT_EPOCH":23061,"BSTAR":0.00049404,"MEAN_MOTION_DOT":1.99e-6,"MEAN_MOTION_DDOT":0},{"OBJECT_NAME":"ONEWEB-0190","OBJECT_ID":"2021-045AF","EPOCH":"2026-03-05T02:41:15.039168","MEAN_MOTION":13.15548505,"ECCENTRICITY":0.0001739,"INCLINATION":87.8942,"RA_OF_ASC_NODE":279.9804,"ARG_OF_PERICENTER":113.9679,"MEAN_ANOMALY":246.1633,"EPHEMERIS_TYPE":0,"CLASSIFICATION_TYPE":"U","NORAD_CAT_ID":48796,"ELEMENT_SET_NO":999,"REV_AT_EPOCH":23068,"BSTAR":0.00046693,"MEAN_MOTION_DOT":1.89e-6,"MEAN_MOTION_DDOT":0},{"OBJECT_NAME":"ONEWEB-0236","OBJECT_ID":"2021-045AG","EPOCH":"2026-03-05T03:06:20.928960","MEAN_MOTION":13.15547587,"ECCENTRICITY":0.0001622,"INCLINATION":87.8938,"RA_OF_ASC_NODE":279.9886,"ARG_OF_PERICENTER":84.2759,"MEAN_ANOMALY":275.8556,"EPHEMERIS_TYPE":0,"CLASSIFICATION_TYPE":"U","NORAD_CAT_ID":48797,"ELEMENT_SET_NO":999,"REV_AT_EPOCH":23057,"BSTAR":0.00042554,"MEAN_MOTION_DOT":1.73e-6,"MEAN_MOTION_DDOT":0},{"OBJECT_NAME":"ONEWEB-0248","OBJECT_ID":"2021-045AH","EPOCH":"2026-03-05T03:24:37.197216","MEAN_MOTION":13.1554791,"ECCENTRICITY":0.0002019,"INCLINATION":87.8953,"RA_OF_ASC_NODE":279.959,"ARG_OF_PERICENTER":98.9092,"MEAN_ANOMALY":261.2266,"EPHEMERIS_TYPE":0,"CLASSIFICATION_TYPE":"U","NORAD_CAT_ID":48798,"ELEMENT_SET_NO":999,"REV_AT_EPOCH":23073,"BSTAR":0.0010989,"MEAN_MOTION_DOT":4.27e-6,"MEAN_MOTION_DDOT":0},{"OBJECT_NAME":"ONEWEB-0225","OBJECT_ID":"2021-045AJ","EPOCH":"2026-03-05T02:07:01.222176","MEAN_MOTION":13.15547476,"ECCENTRICITY":0.0001759,"INCLINATION":87.8942,"RA_OF_ASC_NODE":279.9858,"ARG_OF_PERICENTER":111.3323,"MEAN_ANOMALY":248.7995,"EPHEMERIS_TYPE":0,"CLASSIFICATION_TYPE":"U","NORAD_CAT_ID":48799,"ELEMENT_SET_NO":999,"REV_AT_EPOCH":23073,"BSTAR":-0.00022183,"MEAN_MOTION_DOT":-7.1e-7,"MEAN_MOTION_DDOT":0},{"OBJECT_NAME":"ONEWEB-0215","OBJECT_ID":"2021-045AK","EPOCH":"2026-03-05T03:13:12.330336","MEAN_MOTION":13.15547824,"ECCENTRICITY":0.0001894,"INCLINATION":87.8956,"RA_OF_ASC_NODE":279.949,"ARG_OF_PERICENTER":111.817,"MEAN_ANOMALY":248.3162,"EPHEMERIS_TYPE":0,"CLASSIFICATION_TYPE":"U","NORAD_CAT_ID":48800,"ELEMENT_SET_NO":999,"REV_AT_EPOCH":23061,"BSTAR":0.00030373,"MEAN_MOTION_DOT":1.27e-6,"MEAN_MOTION_DDOT":0},{"OBJECT_NAME":"ONEWEB-0216","OBJECT_ID":"2021-045AL","EPOCH":"2026-03-05T03:26:53.848320","MEAN_MOTION":13.15543436,"ECCENTRICITY":0.0001411,"INCLINATION":87.8948,"RA_OF_ASC_NODE":279.9669,"ARG_OF_PERICENTER":97.2942,"MEAN_ANOMALY":262.8349,"EPHEMERIS_TYPE":0,"CLASSIFICATION_TYPE":"U","NORAD_CAT_ID":48801,"ELEMENT_SET_NO":999,"REV_AT_EPOCH":23062,"BSTAR":0.0055023,"MEAN_MOTION_DOT":2.085e-5,"MEAN_MOTION_DDOT":0},{"OBJECT_NAME":"ONEWEB-0239","OBJECT_ID":"2021-045AM","EPOCH":"2026-03-05T03:33:43.869024","MEAN_MOTION":13.15547436,"ECCENTRICITY":0.0002161,"INCLINATION":87.8944,"RA_OF_ASC_NODE":279.9804,"ARG_OF_PERICENTER":108.2587,"MEAN_ANOMALY":251.8778,"EPHEMERIS_TYPE":0,"CLASSIFICATION_TYPE":"U","NORAD_CAT_ID":48802,"ELEMENT_SET_NO":999,"REV_AT_EPOCH":23066,"BSTAR":-0.00013632,"MEAN_MOTION_DOT":-3.8e-7,"MEAN_MOTION_DDOT":0},{"OBJECT_NAME":"ONEWEB-0249","OBJECT_ID":"2021-060A","EPOCH":"2026-03-04T18:50:29.938272","MEAN_MOTION":13.16593519,"ECCENTRICITY":0.0001737,"INCLINATION":87.9,"RA_OF_ASC_NODE":249.5465,"ARG_OF_PERICENTER":96.6234,"MEAN_ANOMALY":263.5095,"EPHEMERIS_TYPE":0,"CLASSIFICATION_TYPE":"U","NORAD_CAT_ID":48967,"ELEMENT_SET_NO":999,"REV_AT_EPOCH":22587,"BSTAR":-7.6731e-5,"MEAN_MOTION_DOT":-1.6e-7,"MEAN_MOTION_DDOT":0},{"OBJECT_NAME":"ONEWEB-0250","OBJECT_ID":"2021-060B","EPOCH":"2026-03-04T11:34:52.666464","MEAN_MOTION":13.25827575,"ECCENTRICITY":0.00026704,"INCLINATION":87.9,"RA_OF_ASC_NODE":247.7038,"ARG_OF_PERICENTER":89.2213,"MEAN_ANOMALY":270.9229,"EPHEMERIS_TYPE":0,"CLASSIFICATION_TYPE":"U","NORAD_CAT_ID":48968,"ELEMENT_SET_NO":999,"REV_AT_EPOCH":22634,"BSTAR":-1.750269e-6,"MEAN_MOTION_DOT":1.2e-7,"MEAN_MOTION_DDOT":0},{"OBJECT_NAME":"ONEWEB-0252","OBJECT_ID":"2021-060D","EPOCH":"2026-03-05T01:03:15.455232","MEAN_MOTION":13.16593226,"ECCENTRICITY":0.0001382,"INCLINATION":87.8999,"RA_OF_ASC_NODE":249.4877,"ARG_OF_PERICENTER":99.7221,"MEAN_ANOMALY":260.4066,"EPHEMERIS_TYPE":0,"CLASSIFICATION_TYPE":"U","NORAD_CAT_ID":48970,"ELEMENT_SET_NO":999,"REV_AT_EPOCH":22595,"BSTAR":4.8113e-5,"MEAN_MOTION_DOT":3.1e-7,"MEAN_MOTION_DDOT":0},{"OBJECT_NAME":"ONEWEB-0253","OBJECT_ID":"2021-060E","EPOCH":"2026-03-04T22:57:52.742016","MEAN_MOTION":13.16591354,"ECCENTRICITY":0.0001338,"INCLINATION":87.9006,"RA_OF_ASC_NODE":249.5071,"ARG_OF_PERICENTER":83.1636,"MEAN_ANOMALY":276.9647,"EPHEMERIS_TYPE":0,"CLASSIFICATION_TYPE":"U","NORAD_CAT_ID":48971,"ELEMENT_SET_NO":999,"REV_AT_EPOCH":22587,"BSTAR":0.00060983,"MEAN_MOTION_DOT":2.46e-6,"MEAN_MOTION_DDOT":0},{"OBJECT_NAME":"ONEWEB-0254","OBJECT_ID":"2021-060F","EPOCH":"2026-03-05T01:00:58.656384","MEAN_MOTION":13.1659263,"ECCENTRICITY":0.0001922,"INCLINATION":87.9003,"RA_OF_ASC_NODE":249.4883,"ARG_OF_PERICENTER":106.9085,"MEAN_ANOMALY":253.2257,"EPHEMERIS_TYPE":0,"CLASSIFICATION_TYPE":"U","NORAD_CAT_ID":48972,"ELEMENT_SET_NO":999,"REV_AT_EPOCH":22588,"BSTAR":0.00021605,"MEAN_MOTION_DOT":9.5e-7,"MEAN_MOTION_DDOT":0}]
